94P/Russell,e,6.1878,70.8573,92.4268,3.508897,0.1499506,0.36531918,333.4417,11/25.0/2022,2000,g  9.0,6.0
# From MPC 75717
95P/Chiron,e,6.9193,209.3029,339.4827,13.71252,0.0194101,0.37620684,191.0306,11/25.0/2022,2000,g  6.5,2.0
# From MPEC 2022-ST7
96P/Machholz,e,57.5034,93.9548,14.7485,3.030501,0.1868239,0.96158241,347.4661,11/25.0/2022,2000,g 13.0,4.8
# From MPEC 2022-C56
97P/Metcalf-Brewington,e,17.9521,184.0767,229.9984,4.761259,0.0948684,0.46012930,26.7864,11/25.0/2022,2000,g  5.5,6.0
# From MPEC 2021-W31
98P/Takamizawa,e,10.5612,114.6802,157.8062,3.793790,0.1333810,0.56220263,91.9524,11/25.0/2022,2000,g  9.0,8.0
# From MPEC 2022-UE6
99P/Kowal,e,4.3399,28.1018,174.8672,6.102645,0.0653773,0.22887298,14.8396,11/25.0/2022,2000,g  4.5,6.0
# From MPEC 2022-QD9
100P/Hartley,e,25.5667,37.6876,181.9672,3.431552,0.1550487,0.41203871,16.4444,11/25.0/2022,2000,g  9.0,8.0
# From MPEC 2022-K19
101P/Chernykh,e,5.0510,116.2073,277.7607,5.808331,0.0704088,0.59637087,73.7122,11/25.0/2022,2000,g 10.0,4.8
# From MPEC 2022-C56
102P/Shoemaker,e,25.8825,339.3683,20.6349,3.816024,0.1322170,0.45713438,88.7678,11/25.0/2022,2000,g  6.5,8.0
# From MPEC 2018-HA5
103P/Hartley,e,13.6100,219.7497,181.2952,3.475043,0.1521472,0.69372324,311.0798,11/25.0/2022,2000,g  8.5,8.0
# From MPEC 2022-P82
104P/Kowal,e,5.7024,207.2068,227.2520,3.208296,0.1715112,0.66558913,54.4297,11/25.0/2022,2000,g 16.0,4.0
# From MPC109147
105P/Singer Brewster,e,9.1685,192.3961,46.4430,3.469264,0.1525275,0.40887426,239.4905,11/25.0/2022,2000,g 11.5,6.0
# From MPEC 2022-GA9
106P/Schuster,e,19.5373,48.8711,353.7120,3.765009,0.1349134,0.59392870,62.4849,11/25.0/2022,2000,g 14.0,4.8
# From MPEC 2015-M77
107P/Wilson-Harrington,e,2.7993,266.7742,95.4403,2.624461,0.2318163,0.63168529,21.4061,11/25.0/2022,2000,g  9.0,4.0
# From MPEC 2022-P82
108P/Ciffreo,e,11.4366,50.2783,354.4665,3.740424,0.1362457,0.55606632,60.0595,11/25.0/2022,2000,g  8.0,12.0
# From  105, 420
109P/Swift-Tuttle,e,113.8049,139.1803,153.0363,26.19009,0.0073536,0.96259950,80.4458,11/25.0/2022,2000,g  4.0,6.0
# From MPEC 2022-P82
110P/Hartley,e,11.7047,287.5241,167.4575,3.603714,0.1440717,0.31862584,58.0098,11/25.0/2022,2000,g  1.0,12.0
# From MPC 75718
111P/Helin-Roman-Crockett,e,4.2258,89.7539,1.0563,4.150446,0.1165633,0.10674187,61.4163,11/25.0/2022,2000,g  5.0,8.0
# From MPEC 2021-S45
112P/Urata-Niijima,e,24.2115,31.8335,21.4682,3.524604,0.1489494,0.59046475,151.9993,11/25.0/2022,2000,g 14.0,6.0
# From MPEC 2022-WD2
113P/Spitaler,e,5.2898,306.6778,115.5299,3.691349,0.1389717,0.41978318,24.5321,11/25.0/2022,2000,g 13.5,4.0
# From MPEC 2022-K19
114P/Wiseman-Skiff,e,18.2858,271.0278,172.7437,3.543196,0.1477785,0.55531080,154.5261,11/25.0/2022,2000,g 11.5,6.0
# From MPEC 2021-UA9
115P/Maury,e,11.6772,176.0064,121.0024,4.272063,0.1116214,0.51808634,94.7353,11/25.0/2022,2000,g 10.5,6.0
# From MPEC 2022-QD9
116P/Wild,e,3.6034,20.9802,173.2770,3.489881,0.1511779,0.37047276,19.8230,11/25.0/2022,2000,g  2.5,10.0
# From MPEC 2022-WD2
117P/Helin-Roman-Alu,e,8.7039,58.8401,222.9821,4.083057,0.1194610,0.25553554,16.7285,11/25.0/2022,2000,g  2.5,8.0
# From MPEC 2022-WD2
118P/Shoemaker-Levy,e,10.0918,142.0966,314.8368,3.346256,0.1610146,0.45342247,0.1070,11/25.0/2022,2000,g 12.0,4.0
# From MPEC 2022-WD2
119P/Parker-Hartley,e,7.3935,104.5712,322.0748,3.804568,0.1328147,0.38821288,13.9408,11/25.0/2022,2000,g  3.5,8.0
# From MPEC 2022-CN4
120P/Mueller,e,8.4898,358.6721,36.6558,3.965127,0.1248298,0.37486529,70.7170,11/25.0/2022,2000,g 12.0,4.0
# From MPEC 2022-WD2
121P/Shoemaker-Holt,e,20.1652,94.1150,11.6010,4.583621,0.1004364,0.18612882,338.3697,11/25.0/2022,2000,g  6.5,8.0
# From MPC 75718
122P/de Vico,e,85.5123,79.6524,12.9912,17.62385,0.0133215,0.96231536,132.4008,11/25.0/2022,2000,g  7.5,5.2
# From MPEC 2021-F20
123P/West-Hartley,e,15.2855,45.9173,104.1005,3.879876,0.1289666,0.44450737,179.6407,11/25.0/2022,2000,g 12.2,4.0
# From MPEC 2022-K19
124P/Mrkos,e,31.6843,0.1134,185.2495,3.360955,0.1599595,0.49192396,151.6447,11/25.0/2022,2000,g 13.5,2.8
# From MPEC 2015-M77
125P/Spacewatch,e,9.9863,153.1493,87.1899,3.127722,0.1781812,0.51211117,276.5488,11/25.0/2022,2000,g  9.0,4.0
# From MPC 66205
126P/IRAS,e,45.8762,357.8721,356.5921,5.634154,0.0736989,0.69638245,343.6158,11/25.0/2022,2000,g  9.0,4.0
# From MPEC 2022-WD2
127P/Holt-Olmstead,e,14.3012,13.6045,6.2730,3.453050,0.1536030,0.35965575,16.3695,11/25.0/2022,2000,g 11.0,6.0
# From MPC 89014
128P/Shoemaker-Holt,e,4.3701,214.3233,210.2671,4.488699,0.1036390,0.32176446,222.2051,11/25.0/2022,2000,g  8.5,4.0
# From MPEC 2022-K19
129P/Shoemaker-Levy,e,3.4423,184.8623,307.4477,4.288072,0.1109969,0.08481718,359.4376,11/25.0/2022,2000,g 11.0,4.0
# From MPEC 2022-ED3
130P/McNaught-Hughes,e,6.0628,70.1856,246.0962,3.383101,0.1583914,0.46118401,279.7343,11/25.0/2022,2000,g 10.0,6.0
# From MPC102101
131P/Mueller,e,7.3608,214.1468,179.0601,3.678879,0.1396789,0.34465194,195.4525,11/25.0/2022,2000,g 11.0,4.0
# From MPEC 2022-O08
132P/Helin-Roman-Alu,e,5.3827,173.9951,216.3844,3.887516,0.1285866,0.56471498,48.4548,11/25.0/2022,2000,g 11.0,6.0
# From MPC 94676
133P/Elst-Pizarro,e,1.3897,160.0987,131.9006,3.165534,0.1749982,0.15644723,266.8753,11/25.0/2022,2000,g 15.4,2.0
# From MPC 89012
134P/Kowal-Vavrova,e,4.3346,202.0508,18.8485,6.264312,0.0628628,0.58506993,196.0014,11/25.0/2022,2000,g 11.5,4.0
# From MPEC 2022-OB6
135P/Shoemaker-Levy,e,6.0634,213.0266,22.3240,3.799950,0.1330569,0.29468485,30.8222,11/25.0/2022,2000,g  7.0,8.0
# From MPEC 2022-K19
136P/Mueller,e,9.4244,137.4364,225.0750,4.189789,0.1149253,0.29339477,271.5501,11/25.0/2022,2000,g 11.0,4.0
# From MPEC 2022-K19
137P/Shoemaker-Levy,e,4.8574,232.9582,141.1402,4.521306,0.1025199,0.57386065,147.7598,11/25.0/2022,2000,g 11.0,4.0
# From MPEC 2016-U66
138P/Shoemaker-Levy,e,10.0905,309.2914,95.5780,3.620465,0.1430729,0.53128256,186.1554,11/25.0/2022,2000,g 15.0,6.0
# From MPEC 2020-HN5
139P/Vaisala-Oterma,e,2.3365,242.1404,165.7522,4.518977,0.1025992,0.24780388,185.6243,11/25.0/2022,2000,g  9.5,4.0
# From MPEC 2015-E14
140P/Bowell-Skiff,e,3.8458,343.2242,172.7302,6.416173,0.0606443,0.69352730,161.9568,11/25.0/2022,2000,g 11.5,6.0
# From MPEC 2022-K19
141P/Machholz,e,13.9530,241.7993,153.5937,3.057577,0.1843478,0.73601895,130.6118,11/25.0/2022,2000,g 12.0,12.0
# From MPEC 2022-SU8
141P-I/Machholz,e,13.9528,241.8041,153.5680,3.048227,0.1851967,0.73522624,131.2949,11/25.0/2022,2000,g 17.5,4.0
# From MPEC 2021-Y10
142P/Ge-Wang,e,12.2514,175.9320,174.0085,4.999838,0.0881597,0.49713267,49.4816,11/25.0/2022,2000,g  8.5,6.0
# From MPEC 2022-UE6
143P/Kowal-Mrkos,e,4.7169,244.9800,320.3350,4.273136,0.1115794,0.41302685,185.8094,11/25.0/2022,2000,g 13.5,2.0
# From MPC104795
144P/Kushida,e,3.9302,242.9891,216.3563,3.828360,0.1315785,0.63510235,303.8617,11/25.0/2022,2000,g  8.5,8.0
# From MPC108598
145P/Shoemaker-Levy,e,11.2800,26.7965,10.2628,4.135949,0.1171767,0.54231429,223.6431,11/25.0/2022,2000,g 13.5,4.0
# From MPC100284
146P/Shoemaker-LINEAR,e,23.1177,53.3762,317.0187,4.029602,0.1218459,0.64748167,284.5249,11/25.0/2022,2000,g 15.0,4.0
# From MPC 75720
147P/Kushida-Muramatsu,e,2.3086,91.7936,348.2219,4.031246,0.1217714,0.21673848,314.2709,11/25.0/2022,2000,g 14.0,4.0
# From MPEC 2021-S45
148P/Anderson-LINEAR,e,3.6580,89.2050,8.0398,3.618597,0.1431838,0.54991240,23.5259,11/25.0/2022,2000,g 16.0,2.0
# From MPC 75720
149P/Mueller,e,34.3070,143.9824,30.9881,4.132679,0.1173158,0.32247984,184.1452,11/25.0/2022,2000,g  8.0,8.0
# From MPEC 2022-WD2
150P/LONEOS,e,18.5255,272.1298,245.9065,3.875393,0.1291904,0.54887324,298.8490,11/25.0/2022,2000,g 13.5,4.0
# From MPEC 2022-K19
151P/Helin,e,4.7279,143.1513,216.1063,5.763003,0.0712411,0.57381219,185.1924,11/25.0/2022,2000,g 10.0,6.0
# From MPEC 2022-UY9
152P/Helin-Lawrence,e,9.8798,91.8553,164.0125,4.477106,0.1040419,0.30860838,32.7746,11/25.0/2022,2000,g 11.5,4.0
# From MPC 46101
153P/Ikeya-Zhang,e,28.1124,93.4342,34.7404,50.38700,0.0027557,0.98974252,0.0000,03/02.7639/2002,2000,g  9.0,4.0
# From MPEC 2022-K19
154P/Brewington,e,17.6323,343.0318,47.9026,4.798126,0.0937771,0.67610395,307.0668,11/25.0/2022,2000,g  2.5,12.0
# From MPEC 2021-F20
155P/Shoemaker,e,6.4008,97.1724,14.5565,6.570032,0.0585265,0.72646740,64.7270,11/25.0/2022,2000,g 13.8,4.0
# From MPEC 2022-GA9
156P/Russell-LINEAR,e,17.2690,35.3438,0.4692,3.461996,0.1530080,0.61512275,112.7490,11/25.0/2022,2000,g 15.5,2.0
# From MPEC 2022-VC5
157P/Tritton,e,12.4207,287.5472,155.0635,3.545528,0.1476327,0.55667715,11.2477,11/25.0/2022,2000,g 10.0,4.0
# From MPEC 2022-VC5
157P-B/Tritton,e,12.4275,287.0895,153.9369,3.100736,0.1805123,0.49966218,14.0797,11/25.0/2022,2000,g 15.7,4.0
# From MPEC 2022-VC5
158P/Kowal-LINEAR,e,7.5610,133.5206,189.8801,5.307644,0.0806030,0.09184089,31.8213,11/25.0/2022,2000,g  9.0,4.0
# From MPEC 2021-N06
159P/LONEOS,e,23.4810,54.9477,4.5700,5.852626,0.0696110,0.38246172,114.6425,11/25.0/2022,2000,g 10.0,4.0
# From MPEC 2022-K19
160P/LINEAR,e,15.6131,333.3610,12.7718,3.776542,0.1342958,0.52615313,146.1601,11/25.0/2022,2000,g 15.5,2.0
# From MPC 75721
161P/Hartley-IRAS,e,95.8022,1.5838,47.0214,7.717946,0.0459676,0.83538353,292.6897,11/25.0/2022,2000,g  8.5,6.0
# From MPEC 2022-M21
162P/SidingSpring,e,27.5636,30.8891,357.1814,3.092021,0.1812760,0.58314955,129.9691,11/25.0/2022,2000,g 12.0,4.0
# From MPEC 2021-S45
163P/NEAT,e,12.7145,102.0692,349.5569,3.765073,0.1349099,0.45246994,162.9278,11/25.0/2022,2000,g 14.5,4.0
# From MPEC 2021-F20
164P/Christensen,e,16.2678,88.2678,325.8631,3.654710,0.1410667,0.54085873,230.9952,11/25.0/2022,2000,g 11.0,4.0
# From MPC 75721
165P/LINEAR,e,15.8944,0.8695,125.8058,17.84360,0.0130762,0.61628176,107.5738,11/25.0/2022,2000,g 11.5,2.0
# From MPC 75722
166P/NEAT,e,15.3828,64.3592,321.6230,13.81499,0.0191946,0.38458932,143.6041,11/25.0/2022,2000,g  5.5,4.0
# From MPC 75722
167P/CINEOS,e,19.1062,295.7238,344.7851,16.24771,0.0150493,0.27012278,118.4794,11/25.0/2022,2000,g  9.5,2.0
# From MPC102101
